[{"OBJECT_NAME":"ONEWEB-0666","OBJECT_ID":"2023-029AG","EPOCH":"2026-03-09T15:22:38.508672","MEAN_MOTION":13.2077163,"ECCENTRICITY":0.0001999,"INCLINATION":87.9157,"RA_OF_ASC_NODE":294.3598,"ARG_OF_PERICENTER":65.7957,"MEAN_ANOMALY":294.3385,"EPHEMERIS_TYPE":0,"CLASSIFICATION_TYPE":"U","NORAD_CAT_ID":55826,"ELEMENT_SET_NO":999,"REV_AT_EPOCH":14801,"BSTAR":-0.00045448,"MEAN_MOTION_DOT":-1.72e-6,"MEAN_MOTION_DDOT":0},{"OBJECT_NAME":"SL-14 DEB","OBJECT_ID":"1991-056BY","EPOCH":"2026-03-09T06:42:43.217568","MEAN_MOTION":13.26678174,"ECCENTRICITY":0.004608,"INCLINATION":82.5583,"RA_OF_ASC_NODE":184.9455,"ARG_OF_PERICENTER":230.953,"MEAN_ANOMALY":128.7493,"EPHEMERIS_TYPE":0,"CLASSIFICATION_TYPE":"U","NORAD_CAT_ID":45334,"ELEMENT_SET_NO":999,"REV_AT_EPOCH":29218,"BSTAR":0.00047970343,"MEAN_MOTION_DOT":2.27e-6,"MEAN_MOTION_DDOT":0}]
